CCSDS_OMM_VERS = 2.0
CREATION_DATE  = 
ORIGINATOR     = 

OBJECT_NAME    = STARLINK-36605
OBJECT_ID      = 2026-018R
CENTER_NAME    = EARTH
REF_FRAME      = TEME
TIME_SYSTEM    = UTC
MEAN_ELEMENT_THEORY = SGP/SGP4

EPOCH          = 2026-02-13T22:00:01.999584
MEAN_MOTION    = 15.75190956
ECCENTRICITY   = .00011732
INCLINATION    = 97.2853
RA_OF_ASC_NODE = 109.5388
ARG_OF_PERICENTER = 84.0238
MEAN_ANOMALY   = 312.3652

EPHEMERIS_TYPE = 0
CLASSIFICATION_TYPE = U
NORAD_CAT_ID   = 67604
ELEMENT_SET_NO = 999
REV_AT_EPOCH   = 352
BSTAR          = -.41663395E-4
MEAN_MOTION_DOT = -.6339E-4
MEAN_MOTION_DDOT = 0

CCSDS_OMM_VERS = 2.0
CREATION_DATE  = 
ORIGINATOR     = 

OBJECT_NAME    = STARLINK-36281
OBJECT_ID      = 2026-018S
CENTER_NAME    = EARTH
REF_FRAME      = TEME
TIME_SYSTEM    = UTC
MEAN_ELEMENT_THEORY = SGP/SGP4

EPOCH          = 2026-02-13T22:00:01.999584
MEAN_MOTION    = 15.80817397
ECCENTRICITY   = .00015094
INCLINATION    = 97.2865
RA_OF_ASC_NODE = 109.5440
ARG_OF_PERICENTER = 75.9051
MEAN_ANOMALY   = 337.8148

EPHEMERIS_TYPE = 0
CLASSIFICATION_TYPE = U
NORAD_CAT_ID   = 67605
ELEMENT_SET_NO = 999
REV_AT_EPOCH   = 357
BSTAR          = -.34031367E-4
MEAN_MOTION_DOT = -.6656E-4
MEAN_MOTION_DDOT = 0

CCSDS_OMM_VERS = 2.0
CREATION_DATE  = 
ORIGINATOR     = 

OBJECT_NAME    = STARLINK-35843
OBJECT_ID      = 2026-018T
CENTER_NAME    = EARTH
REF_FRAME      = TEME
TIME_SYSTEM    = UTC
MEAN_ELEMENT_THEORY = SGP/SGP4

EPOCH          = 2026-02-13T22:00:01.999584
MEAN_MOTION    = 15.77599889
ECCENTRICITY   = .00016737
INCLINATION    = 97.2858
RA_OF_ASC_NODE = 109.5510
ARG_OF_PERICENTER = 76.9855
MEAN_ANOMALY   = 348.9130

EPHEMERIS_TYPE = 0
CLASSIFICATION_TYPE = U
NORAD_CAT_ID   = 67606
ELEMENT_SET_NO = 999
REV_AT_EPOCH   = 358
BSTAR          = -.12947735E-1
MEAN_MOTION_DOT = -.1876096E-1
MEAN_MOTION_DDOT = 0

CCSDS_OMM_VERS = 2.0
CREATION_DATE  = 
ORIGINATOR     = 

OBJECT_NAME    = STARLINK-36351
OBJECT_ID      = 2026-018U
CENTER_NAME    = EARTH
REF_FRAME      = TEME
TIME_SYSTEM    = UTC
MEAN_ELEMENT_THEORY = SGP/SGP4

EPOCH          = 2026-02-13T22:00:01.999584
MEAN_MOTION    = 15.80813226
ECCENTRICITY   = .00002994
INCLINATION    = 97.2853
RA_OF_ASC_NODE = 109.5536
ARG_OF_PERICENTER = 89.4818
MEAN_ANOMALY   = 345.8352

EPHEMERIS_TYPE = 0
CLASSIFICATION_TYPE = U
NORAD_CAT_ID   = 67607
ELEMENT_SET_NO = 999
REV_AT_EPOCH   = 358
BSTAR          = -.19101502E-3
MEAN_MOTION_DOT = -.3657E-3
MEAN_MOTION_DDOT = 0

CCSDS_OMM_VERS = 2.0
CREATION_DATE  = 
ORIGINATOR     = 

OBJECT_NAME    = STARLINK-36411
OBJECT_ID      = 2026-018V
CENTER_NAME    = EARTH
REF_FRAME      = TEME
TIME_SYSTEM    = UTC
MEAN_ELEMENT_THEORY = SGP/SGP4

EPOCH          = 2026-02-13T22:00:01.999584
MEAN_MOTION    = 15.80834729
ECCENTRICITY   = .00013413
INCLINATION    = 97.2860
RA_OF_ASC_NODE = 109.5556
ARG_OF_PERICENTER = 88.0798
MEAN_ANOMALY   = 354.9737

EPHEMERIS_TYPE = 0
CLASSIFICATION_TYPE = U
NORAD_CAT_ID   = 67608
ELEMENT_SET_NO = 999
REV_AT_EPOCH   = 357
BSTAR          = -.13924439E-3
MEAN_MOTION_DOT = -.26755E-3
MEAN_MOTION_DDOT = 0

CCSDS_OMM_VERS = 2.0
CREATION_DATE  = 
ORIGINATOR     = 

OBJECT_NAME    = STARLINK-36312
OBJECT_ID      = 2026-018W
CENTER_NAME    = EARTH
REF_FRAME      = TEME
TIME_SYSTEM    = UTC
MEAN_ELEMENT_THEORY = SGP/SGP4

EPOCH          = 2026-02-13T22:00:01.999584
MEAN_MOTION    = 15.80847227
ECCENTRICITY   = .00012323
INCLINATION    = 97.2858
RA_OF_ASC_NODE = 109.5591
ARG_OF_PERICENTER = 76.7094
MEAN_ANOMALY   = 13.0999

EPHEMERIS_TYPE = 0
CLASSIFICATION_TYPE = U
NORAD_CAT_ID   = 67609
ELEMENT_SET_NO = 999
REV_AT_EPOCH   = 358
BSTAR          = -.41112237E-3
MEAN_MOTION_DOT = -.783E-3
MEAN_MOTION_DDOT = 0

CCSDS_OMM_VERS = 2.0
CREATION_DATE  = 
ORIGINATOR     = 

OBJECT_NAME    = STARLINK-36387
OBJECT_ID      = 2026-018X
CENTER_NAME    = EARTH
REF_FRAME      = TEME
TIME_SYSTEM    = UTC
MEAN_ELEMENT_THEORY = SGP/SGP4

EPOCH          = 2026-02-13T22:00:01.999584
MEAN_MOTION    = 15.80841358
ECCENTRICITY   = .00013885
INCLINATION    = 97.2860
RA_OF_ASC_NODE = 109.5619
ARG_OF_PERICENTER = 99.0350
MEAN_ANOMALY   = 358.9684

EPHEMERIS_TYPE = 0
CLASSIFICATION_TYPE = U
NORAD_CAT_ID   = 67610
ELEMENT_SET_NO = 999
REV_AT_EPOCH   = 358
BSTAR          = -.21836497E-3
MEAN_MOTION_DOT = -.41818E-3
MEAN_MOTION_DDOT = 0

CCSDS_OMM_VERS = 2.0
CREATION_DATE  = 
ORIGINATOR     = 

OBJECT_NAME    = STARLINK-36636
OBJECT_ID      = 2026-018Y
CENTER_NAME    = EARTH
REF_FRAME      = TEME
TIME_SYSTEM    = UTC
MEAN_ELEMENT_THEORY = SGP/SGP4

EPOCH          = 2026-02-13T22:00:01.999584
MEAN_MOTION    = 15.80855413
ECCENTRICITY   = .00015782
INCLINATION    = 97.2746
RA_OF_ASC_NODE = 109.5617
ARG_OF_PERICENTER = 69.9352
MEAN_ANOMALY   = 34.1555

EPHEMERIS_TYPE = 0
CLASSIFICATION_TYPE = U
NORAD_CAT_ID   = 67611
ELEMENT_SET_NO = 999
REV_AT_EPOCH   = 353
BSTAR          = -.40325439E-3
MEAN_MOTION_DOT = -.76849E-3
MEAN_MOTION_DDOT = 0

CCSDS_OMM_VERS = 2.0
CREATION_DATE  = 
ORIGINATOR     = 

OBJECT_NAME    = STARLINK-36407
OBJECT_ID      = 2026-018Z
CENTER_NAME    = EARTH
REF_FRAME      = TEME
TIME_SYSTEM    = UTC
MEAN_ELEMENT_THEORY = SGP/SGP4

EPOCH          = 2026-02-13T22:00:01.999584
MEAN_MOTION    = 15.80770507
ECCENTRICITY   = .00012406
INCLINATION    = 97.2856
RA_OF_ASC_NODE = 109.5662
ARG_OF_PERICENTER = 108.4637
MEAN_ANOMALY   = 0.8737

EPHEMERIS_TYPE = 0
CLASSIFICATION_TYPE = U
NORAD_CAT_ID   = 67612
ELEMENT_SET_NO = 999
REV_AT_EPOCH   = 363
BSTAR          = .18869686E-3
MEAN_MOTION_DOT = .36076E-3
MEAN_MOTION_DDOT = 0

CCSDS_OMM_VERS = 2.0
CREATION_DATE  = 
ORIGINATOR     = 

OBJECT_NAME    = STARLINK-36597
OBJECT_ID      = 2026-018AA
CENTER_NAME    = EARTH
REF_FRAME      = TEME
TIME_SYSTEM    = UTC
MEAN_ELEMENT_THEORY = SGP/SGP4

EPOCH          = 2026-02-13T22:00:01.999584
MEAN_MOTION    = 15.80852062
ECCENTRICITY   = .00014754
INCLINATION    = 97.2858
RA_OF_ASC_NODE = 109.5690
ARG_OF_PERICENTER = 113.9548
MEAN_ANOMALY   = 1.1568

EPHEMERIS_TYPE = 0
CLASSIFICATION_TYPE = U
NORAD_CAT_ID   = 67613
ELEMENT_SET_NO = 999
REV_AT_EPOCH   = 353
BSTAR          = -.30608954E-3
MEAN_MOTION_DOT = -.58479E-3
MEAN_MOTION_DDOT = 0

CCSDS_OMM_VERS = 2.0
CREATION_DATE  = 
ORIGINATOR     = 

OBJECT_NAME    = NEONSAT-1A
OBJECT_ID      = 2026-019A
CENTER_NAME    = EARTH
REF_FRAME      = TEME
TIME_SYSTEM    = UTC
MEAN_ELEMENT_THEORY = SGP/SGP4

EPOCH          = 2026-02-13T10:07:49.135008
MEAN_MOTION    = 15.07600397
ECCENTRICITY   = .00122686
INCLINATION    = 97.4094
RA_OF_ASC_NODE = 168.8746
ARG_OF_PERICENTER = 256.0034
MEAN_ANOMALY   = 103.9831

EPHEMERIS_TYPE = 0
CLASSIFICATION_TYPE = U
NORAD_CAT_ID   = 67614
ELEMENT_SET_NO = 999
REV_AT_EPOCH   = 216
BSTAR          = .16135553E-3
MEAN_MOTION_DOT = .2398E-4
MEAN_MOTION_DDOT = 0

CCSDS_OMM_VERS = 2.0
CREATION_DATE  = 
ORIGINATOR     = 

OBJECT_NAME    = ELECTRON KICK STAGE R/B
OBJECT_ID      = 2026-019C
CENTER_NAME    = EARTH
REF_FRAME      = TEME
TIME_SYSTEM    = UTC
MEAN_ELEMENT_THEORY = SGP/SGP4

EPOCH          = 2026-02-12T20:04:15.907008
MEAN_MOTION    = 15.62182006
ECCENTRICITY   = .0181683
INCLINATION    = 97.4047
RA_OF_ASC_NODE = 169.3473
ARG_OF_PERICENTER = 212.6127
MEAN_ANOMALY   = 146.3808

EPHEMERIS_TYPE = 0
CLASSIFICATION_TYPE = U
NORAD_CAT_ID   = 67616
ELEMENT_SET_NO = 999
REV_AT_EPOCH   = 214
BSTAR          = .18935E-2
MEAN_MOTION_DOT = .391517E-2
MEAN_MOTION_DDOT = .44709E-4

