STARLINK-36605          
1 67604U 26018R   26044.91668981 -.00006339  00000+0 -41663-4 0  9990
2 67604  97.2853 109.5388 0001173  84.0238 312.3652 15.75190956  3520
STARLINK-36281          
1 67605U 26018S   26044.91668981 -.00006656  00000+0 -34031-4 0  9994
2 67605  97.2865 109.5440 0001509  75.9051 337.8148 15.80817397  3576
STARLINK-35843          
1 67606U 26018T   26044.91668981 -.01876096  00000+0 -12948-1 0  9999
2 67606  97.2858 109.5510 0001673  76.9855 348.9130 15.77599889  3586
STARLINK-36351          
1 67607U 26018U   26044.91668981 -.00036570  00000+0 -19102-3 0  9995
2 67607  97.2853 109.5536 0000299  89.4818 345.8352 15.80813226  3581
STARLINK-36411          
1 67608U 26018V   26044.91668981 -.00026755  00000+0 -13924-3 0  9996
2 67608  97.2860 109.5556 0001341  88.0798 354.9737 15.80834729  3571
STARLINK-36312          
1 67609U 26018W   26044.91668981 -.00078300  00000+0 -41112-3 0  9990
2 67609  97.2858 109.5591 0001232  76.7094  13.0999 15.80847227  3581
STARLINK-36387          
1 67610U 26018X   26044.91668981 -.00041818  00000+0 -21836-3 0  9997
2 67610  97.2860 109.5619 0001388  99.0350 358.9684 15.80841358  3583
STARLINK-36636          
1 67611U 26018Y   26044.91668981 -.00076849  00000+0 -40325-3 0  9994
2 67611  97.2746 109.5617 0001578  69.9352  34.1555 15.80855413  3536
STARLINK-36407          
1 67612U 26018Z   26044.91668981  .00036076  00000+0  18870-3 0  9991
2 67612  97.2856 109.5662 0001240 108.4637   0.8737 15.80770507  3633
STARLINK-36597          
1 67613U 26018AA  26044.91668981 -.00058479  00000+0 -30609-3 0  9999
2 67613  97.2858 109.5690 0001475 113.9548   1.1568 15.80852062  3531
NEONSAT-1A              
1 67614U 26019A   26044.42209647  .00002398  00000+0  16136-3 0  9993
2 67614  97.4094 168.8746 0012268 256.0034 103.9831 15.07600397  2160
ELECTRON KICK STAGE R/B 
1 67616U 26019C   26043.83629522  .00391517  44709-4  18935-2 0  9998
2 67616  97.4047 169.3473 0181683 212.6127 146.3808 15.62182006  2148
